{
  "norad_id": 68903,
  "name": "STARLINK-37567",
  "history": [
    {
      "epoch": "2026-05-04T18:00:02.000160Z",
      "apogee_km": 280.024521879207,
      "perigee_km": 278.0180543711667,
      "latitude_deg": -53.1471497349095,
      "longitude_deg": -2.73350482593814,
      "height_km": 300.507948398523,
      "semi_major_axis_km": 6657.158288125186,
      "eccentricity": 0.0001507,
      "inclination_deg": 97.2868,
      "raan_deg": 319.6762,
      "arg_perigee_deg": 93.8907,
      "mean_anomaly_deg": 139.61,
      "mean_motion_rev_day": 15.98340989
    }
  ]
}