{"generatedAt":"2026-05-05T08:19:47.084492Z","satellites":[{"name":"STARLINK-37567","tle1":"1 68903U 26097J   26124.75002315 -.02216022  14222-2 -48537-2 0  9997","tle2":"2 68903  97.2868 319.6762 0001507  93.8907 139.6100 15.98340989  1941"}]}